{"type": "FeatureCollection", "features": [ {"type": "Feature", "properties": {"norad_id": 28659, "name": "DIRECTV 8", "group": "intelsat", "lat": 0.027513105442060627, "lon": 119.30482501404067, "alt_km": 35798.90782932552, "timestamp": "2025-12-27T09:28:56.134659+00:00", "meta": {"OBJECT_NAME": "DIRECTV 8", "OBJECT_ID": "2005-019A", "EPOCH": "2025-12-26T09:14:16.477152", "MEAN_MOTION": 1.00271765, "ECCENTRICITY": 0.0003134, "INCLINATION": 0.0135, "RA_OF_ASC_NODE": 57.3028, "ARG_OF_PERICENTER": 228.1398, "MEAN_ANOMALY": 189.2168, "EPHEMERIS_TYPE": 0, "CLASSIFICATION_TYPE": "U", "NORAD_CAT_ID": 28659, "ELEMENT_SET_NO": 999, "REV_AT_EPOCH": 7534, "BSTAR": 0, "MEAN_MOTION_DOT": 2.3e-07, "MEAN_MOTION_DDOT": 0}, "tle": {"line1": "1 28659U 05019A   25360.38491293  .00000023  00000+0  00000+0 0  9993", "line2": "2 28659   0.0135  57.3028 0003134 228.1398 189.2168  1.00271765 75343"}}, "geometry": {"type": "Point", "coordinates": [119.30482501404067, 0.027513105442060627]}}, {"type": "Feature", "properties": {"norad_id": 28702, "name": "GALAXY 28 (G-28)", "group": "intelsat", "lat": 2.7976869550245342, "lon": 158.36473645216253, "alt_km": 35692.73162630945, "timestamp": "2025-12-27T09:28:56.134682+00:00", "meta": {"OBJECT_NAME": "GALAXY 28 (G-28)", "OBJECT_ID": "2005-022A", "EPOCH": "2025-12-27T04:19:27.648768", "MEAN_MOTION": 1.00599471, "ECCENTRICITY": 0.0003418, "INCLINATION": 2.8568, "RA_OF_ASC_NODE": 81.1139, "ARG_OF_PERICENTER": 161.5266, "MEAN_ANOMALY": 197.9493, "EPHEMERIS_TYPE": 0, "CLASSIFICATION_TYPE": "U", "NORAD_CAT_ID": 28702, "ELEMENT_SET_NO": 999, "REV_AT_EPOCH": 5024, "BSTAR": 0, "MEAN_MOTION_DOT": -2.35e-06, "MEAN_MOTION_DDOT": 0}, "tle": {"line1": "1 28702U 05022A   25361.18018112 -.00000235  00000+0  00000+0 0  9996", "line2": "2 28702   2.8568  81.1139 0003418 161.5266 197.9493  1.00599471 50245"}}, "geometry": {"type": "Point", "coordinates": [158.36473645216253, 2.7976869550245342]}}, {"type": "Feature", "properties": {"norad_id": 29236, "name": "GALAXY 16 (G-16)", "group": "intelsat", "lat": -0.011506969400352084, "lon": 139.3220890967441, "alt_km": 35795.2243223572, "timestamp": "2025-12-27T09:28:56.134706+00:00", "meta": {"OBJECT_NAME": "GALAXY 16 (G-16)", "OBJECT_ID": "2006-023A", "EPOCH": "2025-12-27T04:20:38.793120", "MEAN_MOTION": 1.00271184, "ECCENTRICITY": 0.0002754, "INCLINATION": 0.0374, "RA_OF_ASC_NODE": 206.2569, "ARG_OF_PERICENTER": 73.3748, "MEAN_ANOMALY": 142.4352, "EPHEMERIS_TYPE": 0, "CLASSIFICATION_TYPE": "U", "NORAD_CAT_ID": 29236, "ELEMENT_SET_NO": 999, "REV_AT_EPOCH": 7124, "BSTAR": 0, "MEAN_MOTION_DOT": -1.04e-06, "MEAN_MOTION_DDOT": 0}, "tle": {"line1": "1 29236U 06023A   25361.18100455 -.00000104  00000+0  00000+0 0  9998", "line2": "2 29236   0.0374 206.2569 0002754  73.3748 142.4352  1.00271184 71247"}}, "geometry": {"type": "Point", "coordinates": [139.3220890967441, -0.011506969400352084]}}, {"type": "Feature", "properties": {"norad_id": 29494, "name": "DIRECTV 9S", "group": "intelsat", "lat": 1.6151483360712868, "lon": 137.11286179966396, "alt_km": 35796.70068699264, "timestamp": "2025-12-27T09:28:56.134720+00:00", "meta": {"OBJECT_NAME": "DIRECTV 9S", "OBJECT_ID": "2006-043A", "EPOCH": "2025-12-27T04:37:38.707104", "MEAN_MOTION": 1.00271328, "ECCENTRICITY": 0.0003126, "INCLINATION": 1.9755, "RA_OF_ASC_NODE": 83.0558, "ARG_OF_PERICENTER": 198.0561, "MEAN_ANOMALY": 143.0226, "EPHEMERIS_TYPE": 0, "CLASSIFICATION_TYPE": "U", "NORAD_CAT_ID": 29494, "ELEMENT_SET_NO": 999, "REV_AT_EPOCH": 4965, "BSTAR": 0, "MEAN_MOTION_DOT": -9.2e-07, "MEAN_MOTION_DDOT": 0}, "tle": {"line1": "1 29494U 06043A   25361.19280911 -.00000092  00000+0  00000+0 0  9999", "line2": "2 29494   1.9755  83.0558 0003126 198.0561 143.0226  1.00271328 49654"}}, "geometry": {"type": "Point", "coordinates": [137.11286179966396, 1.6151483360712868]}}, {"type": "Feature", "properties": {"norad_id": 31307, "name": "GALAXY 17 (G-17)", "group": "intelsat", "lat": 2.4112315427641065, "lon": 153.28707301648265, "alt_km": 35791.50189315121, "timestamp": "2025-12-27T09:28:56.134736+00:00", "meta": {"OBJECT_NAME": "GALAXY 17 (G-17)", "OBJECT_ID": "2007-016B", "EPOCH": "2025-12-27T01:44:56.304096", "MEAN_MOTION": 1.00271493, "ECCENTRICITY": 0.0005648, "INCLINATION": 2.5341, "RA_OF_ASC_NODE": 82.1204, "ARG_OF_PERICENTER": 174.6982, "MEAN_ANOMALY": 140.2373, "EPHEMERIS_TYPE": 0, "CLASSIFICATION_TYPE": "U", "NORAD_CAT_ID": 31307, "ELEMENT_SET_NO": 999, "REV_AT_EPOCH": 6807, "BSTAR": 0, "MEAN_MOTION_DOT": -1.85e-06, "MEAN_MOTION_DDOT": 0}, "tle": {"line1": "1 31307U 07016B   25361.07287389 -.00000185  00000+0  00000+0 0  9992", "line2": "2 31307   2.5341  82.1204 0005648 174.6982 140.2373  1.00271493 68076"}}, "geometry": {"type": "Point", "coordinates": [153.28707301648265, 2.4112315427641065]}}, {"type": "Feature", "properties": {"norad_id": 31862, "name": "DIRECTV 10", "group": "intelsat", "lat": 0.00705914490969402, "lon": 135.6237375447487, "alt_km": 35784.31110757458, "timestamp": "2025-12-27T09:28:56.134748+00:00", "meta": {"OBJECT_NAME": "DIRECTV 10", "OBJECT_ID": "2007-032A", "EPOCH": "2025-12-25T09:09:15.831072", "MEAN_MOTION": 1.00280696, "ECCENTRICITY": 7.66e-05, "INCLINATION": 0.0126, "RA_OF_ASC_NODE": 126.575, "ARG_OF_PERICENTER": 111.4706, "MEAN_ANOMALY": 250.6263, "EPHEMERIS_TYPE": 0, "CLASSIFICATION_TYPE": "U", "NORAD_CAT_ID": 31862, "ELEMENT_SET_NO": 999, "REV_AT_EPOCH": 4385, "BSTAR": 0, "MEAN_MOTION_DOT": -8.3e-07, "MEAN_MOTION_DDOT": 0}, "tle": {"line1": "1 31862U 07032A   25359.38143323 -.00000083  00000+0  00000+0 0  9993", "line2": "2 31862   0.0126 126.5750 0000766 111.4706 250.6263  1.00280696 43852"}}, "geometry": {"type": "Point", "coordinates": [135.6237375447487, 0.00705914490969402]}}, {"type": "Feature", "properties": {"norad_id": 32253, "name": "INTELSAT 11 (IS-11)", "group": "intelsat", "lat": -2.0402665689403037, "lon": 39.75042728603094, "alt_km": 36162.33900016444, "timestamp": "2025-12-27T09:28:56.134760+00:00", "meta": {"OBJECT_NAME": "INTELSAT 11 (IS-11)", "OBJECT_ID": "2007-044B", "EPOCH": "2025-12-26T22:22:13.902240", "MEAN_MOTION": 0.99052995, "ECCENTRICITY": 0.0008662, "INCLINATION": 3.1152, "RA_OF_ASC_NODE": 80.8162, "ARG_OF_PERICENTER": 172.1534, "MEAN_ANOMALY": 341.5886, "EPHEMERIS_TYPE": 0, "CLASSIFICATION_TYPE": "U", "NORAD_CAT_ID": 32253, "ELEMENT_SET_NO": 999, "REV_AT_EPOCH": 6674, "BSTAR": 0, "MEAN_MOTION_DOT": -2.25e-06, "MEAN_MOTION_DDOT": 0}, "tle": {"line1": "1 32253U 07044B   25360.93210535 -.00000225  00000+0  00000+0 0  9992", "line2": "2 32253   3.1152  80.8162 0008662 172.1534 341.5886  0.99052995 66745"}}, "geometry": {"type": "Point", "coordinates": [39.75042728603094, -2.0402665689403037]}}, {"type": "Feature", "properties": {"norad_id": 32388, "name": "HORIZONS-2", "group": "intelsat", "lat": 2.143554792642081, "lon": 164.47879887855387, "alt_km": 35795.790176975825, "timestamp": "2025-12-27T09:28:56.134772+00:00", "meta": {"OBJECT_NAME": "HORIZONS-2", "OBJECT_ID": "2007-063B", "EPOCH": "2025-12-27T01:24:36.095040", "MEAN_MOTION": 1.00268662, "ECCENTRICITY": 0.0004886, "INCLINATION": 2.1568, "RA_OF_ASC_NODE": 82.8029, "ARG_OF_PERICENTER": 197.7808, "MEAN_ANOMALY": 122.5454, "EPHEMERIS_TYPE": 0, "CLASSIFICATION_TYPE": "U", "NORAD_CAT_ID": 32388, "ELEMENT_SET_NO": 999, "REV_AT_EPOCH": 6608, "BSTAR": 0, "MEAN_MOTION_DOT": -2.32e-06, "MEAN_MOTION_DDOT": 0}, "tle": {"line1": "1 32388U 07063B   25361.05875110 -.00000232  00000+0  00000+0 0  9990", "line2": "2 32388   2.1568  82.8029 0004886 197.7808 122.5454  1.00268662 66087"}}, "geometry": {"type": "Point", "coordinates": [164.47879887855387, 2.143554792642081]}}, {"type": "Feature", "properties": {"norad_id": 32729, "name": "DIRECTV 11", "group": "intelsat", "lat": -0.026708092990459592, "lon": 139.04182929340328, "alt_km": 35787.98258612203, "timestamp": "2025-12-27T09:28:56.134784+00:00", "meta": {"OBJECT_NAME": "DIRECTV 11", "OBJECT_ID": "2008-013A", "EPOCH": "2025-12-24T22:53:59.758368", "MEAN_MOTION": 1.00260442, "ECCENTRICITY": 0.0001047, "INCLINATION": 0.0475, "RA_OF_ASC_NODE": 199.7105, "ARG_OF_PERICENTER": 11.4593, "MEAN_ANOMALY": 126.8496, "EPHEMERIS_TYPE": 0, "CLASSIFICATION_TYPE": "U", "NORAD_CAT_ID": 32729, "ELEMENT_SET_NO": 999, "REV_AT_EPOCH": 4384, "BSTAR": 0, "MEAN_MOTION_DOT": -1.03e-06, "MEAN_MOTION_DDOT": 0}, "tle": {"line1": "1 32729U 08013A   25358.95416387 -.00000103  00000+0  00000+0 0  9994", "line2": "2 32729   0.0475 199.7105 0001047  11.4593 126.8496  1.00260442 43842"}}, "geometry": {"type": "Point", "coordinates": [139.04182929340328, -0.026708092990459592]}}, {"type": "Feature", "properties": {"norad_id": 32951, "name": "GALAXY 18 (G-18)", "group": "intelsat", "lat": 0.036473043830481444, "lon": 115.3371033913745, "alt_km": 35800.26402717713, "timestamp": "2025-12-27T09:28:56.134796+00:00", "meta": {"OBJECT_NAME": "GALAXY 18 (G-18)", "OBJECT_ID": "2008-024A", "EPOCH": "2025-12-27T04:39:36.425376", "MEAN_MOTION": 1.002713, "ECCENTRICITY": 0.000338, "INCLINATION": 0.0194, "RA_OF_ASC_NODE": 7.6676, "ARG_OF_PERICENTER": 277.1548, "MEAN_ANOMALY": 117.9994, "EPHEMERIS_TYPE": 0, "CLASSIFICATION_TYPE": "U", "NORAD_CAT_ID": 32951, "ELEMENT_SET_NO": 999, "REV_AT_EPOCH": 4412, "BSTAR": 0, "MEAN_MOTION_DOT": 0, "MEAN_MOTION_DDOT": 0}, "tle": {"line1": "1 32951U 08024A   25361.19417159  .00000000  00000+0  00000+0 0  9996", "line2": "2 32951   0.0194   7.6676 0003380 277.1548 117.9994  1.00271300 44121"}}, "geometry": {"type": "Point", "coordinates": [115.3371033913745, 0.036473043830481444]}}]}